SPACEMOBILE-004         
1 61049U 24163E   26190.57554382 -.00014088  00000+0 -61665-3 0  9992
2 61049  52.9654 205.9666 0008113 207.5207 152.5359 15.20814564101179
CZ-8A R/B               
1 66004U 25231K   26192.50811089 -.00000094  00000+0  24968-4 0  9997
2 66004  50.0050 295.8455 0116515 309.6324  49.4354 14.30161531 38423
SZ-21 MODULE            
1 66515U 25246C   26191.95718940  .00036243  00000+0  20325-3 0  9996
2 66515  41.4697 159.0508 0007339 191.9167 168.1505 15.78504518 37493
SPACEMOBILE-006         
1 67232U 25309A   26192.45965029  .00000216  00000+0  25641-4 0  9999
2 67232  52.9930 220.4489 0010403 203.4538 156.5982 15.18647644 30287
SPACEMOBILE-008         
1 69589U 26139A   26192.32103221  .00000086  00000+0  21806-4 0  9996
2 69589  52.9941 152.9965 0004879  47.3692 312.7710 15.12799068  3636
SPACEMOBILE-009         
1 69590U 26139B   26192.52093152  .00000004  00000+0  17235-4 0  9992
2 69590  52.9933 152.1023 0005132  43.2568 316.8825 15.12692406  3669
SPACEMOBILE-010         
1 69591U 26139C   26191.92893653  .00000038  00000+0  19202-4 0  9993
2 69591  52.9937 154.8205 0004992  33.2635 326.8669 15.12522766  3581
